[
    {
        "Altitude(m)": 706805.1602885071,
        "Argument of Periapsis(deg)": 0.007973084830638947,
        "Eccentricity": 0.0,
        "Inclination(deg)": 45.0,
        "Latitude(deg)": 42.900066642935066,
        "Longitude(deg)": -118.09090588134588,
        "Mean Anomaly(deg)": 106.25505165323658,
        "RAAN(deg)": 229.99247364097926,
        "Satellite Name": "Constellation 1 1018",
        "Satellite Number": 1018,
        "Semi-Major Axis(m)": 7083131.272910544,
        "Time(s)": 133
    },
    {
        "Altitude(m)": 706801.5122306457,
        "Argument of Periapsis(deg)": 0.008033032836884352,
        "Eccentricity": 0.0,
        "Inclination(deg)": 45.0,
        "Latitude(deg)": 42.88361346849276,
        "Longitude(deg)": -118.015408947907,
        "Mean Anomaly(deg)": 106.31575279348645,
        "RAAN(deg)": 229.9924170518137,
        "Satellite Name": "Constellation 1 1018",
        "Satellite Number": 1018,
        "Semi-Major Axis(m)": 7083131.272910544,
        "Time(s)": 134
    },
    {
        "Altitude(m)": 706797.8525332521,
        "Argument of Periapsis(deg)": 0.008092980843129758,
        "Eccentricity": 0.0,
        "Inclination(deg)": 45.0,
        "Latitude(deg)": 42.86710494672757,
        "Longitude(deg)": -117.93995435208967,
        "Mean Anomaly(deg)": 106.37645393373634,
        "RAAN(deg)": 229.99236046264815,
        "Satellite Name": "Constellation 1 1018",
        "Satellite Number": 1018,
        "Semi-Major Axis(m)": 7083131.272910544,
        "Time(s)": 135
    },
    {
        "Altitude(m)": 706794.1812180739,
        "Argument of Periapsis(deg)": 0.008152928849375162,
        "Eccentricity": 0.0,
        "Inclination(deg)": 45.0,
        "Latitude(deg)": 42.85054113844986,
        "Longitude(deg)": -117.8645421887596,
        "Mean Anomaly(deg)": 106.43715507398628,
        "RAAN(deg)": 229.9923038734825,
        "Satellite Name": "Constellation 1 1018",
        "Satellite Number": 1018,
        "Semi-Major Axis(m)": 7083131.272910544,
        "Time(s)": 136
    },
    {
        "Altitude(m)": 706790.4983069283,
        "Argument of Periapsis(deg)": 0.008212876855620568,
        "Eccentricity": 0.0,
        "Inclination(deg)": 45.0,
        "Latitude(deg)": 42.8339221045905,
        "Longitude(deg)": -117.7891725522168,
        "Mean Anomaly(deg)": 106.49785621423618,
        "RAAN(deg)": 229.99224728431696,
        "Satellite Name": "Constellation 1 1018",
        "Satellite Number": 1018,
        "Semi-Major Axis(m)": 7083131.272910544,
        "Time(s)": 137
    },
    {
        "Altitude(m)": 706786.8038216998,
        "Argument of Periapsis(deg)": 0.008272824861865974,
        "Eccentricity": 0.0,
        "Inclination(deg)": 45.0,
        "Latitude(deg)": 42.81724790619973,
        "Longitude(deg)": -117.71384553619579,
        "Mean Anomaly(deg)": 106.55855735448607,
        "RAAN(deg)": 229.9921906951514,
        "Satellite Name": "Constellation 1 1018",
        "Satellite Number": 1018,
        "Semi-Major Axis(m)": 7083131.272910544,
        "Time(s)": 138
    },
    {
        "Altitude(m)": 706783.0977843506,
        "Argument of Periapsis(deg)": 0.00833277286811138,
        "Eccentricity": 0.0,
        "Inclination(deg)": 45.0,
        "Latitude(deg)": 42.80051860444653,
        "Longitude(deg)": -117.63856123386527,
        "Mean Anomaly(deg)": 106.619258494736,
        "RAAN(deg)": 229.99213410598585,
        "Satellite Name": "Constellation 1 1018",
        "Satellite Number": 1018,
        "Semi-Major Axis(m)": 7083131.272910544,
        "Time(s)": 139
    },
    {
        "Altitude(m)": 706779.3802169092,
        "Argument of Periapsis(deg)": 0.008392720874356788,
        "Eccentricity": 0.0,
        "Inclination(deg)": 45.0,
        "Latitude(deg)": 42.78373426061745,
        "Longitude(deg)": -117.56331973782832,
        "Mean Anomaly(deg)": 106.67995963498589,
        "RAAN(deg)": 229.9920775168203,
        "Satellite Name": "Constellation 1 1018",
        "Satellite Number": 1018,
        "Semi-Major Axis(m)": 7083131.272910544,
        "Time(s)": 140
    },
    {
        "Altitude(m)": 706775.651141472,
        "Argument of Periapsis(deg)": 0.008452668880602192,
        "Eccentricity": 0.0,
        "Inclination(deg)": 45.0,
        "Latitude(deg)": 42.766894936116074,
        "Longitude(deg)": -117.48812130821928,
        "Mean Anomaly(deg)": 106.74066077523577,
        "RAAN(deg)": 229.9920209276547,
        "Satellite Name": "Constellation 1 1018",
        "Satellite Number": 1018,
        "Semi-Major Axis(m)": 7083131.272910544,
        "Time(s)": 141
    },
    {
        "Altitude(m)": 706771.9105802189,
        "Argument of Periapsis(deg)": 0.008512616886847598,
        "Eccentricity": 0.0,
        "Inclination(deg)": 45.0,
        "Latitude(deg)": 42.750000692461306,
        "Longitude(deg)": -117.41296570031676,
        "Mean Anomaly(deg)": 106.80136191548566,
        "RAAN(deg)": 229.9919643384891,
        "Satellite Name": "Constellation 1 1018",
        "Satellite Number": 1018,
        "Semi-Major Axis(m)": 7083131.272910544,
        "Time(s)": 142
    },
    {
        "Altitude(m)": 706768.15855539,
        "Argument of Periapsis(deg)": 0.008572564893093004,
        "Eccentricity": 0.0,
        "Inclination(deg)": 45.0,
        "Latitude(deg)": 42.73305159128746,
        "Longitude(deg)": -117.33785317312392,
        "Mean Anomaly(deg)": 106.86206305573559,
        "RAAN(deg)": 229.99190774932356,
        "Satellite Name": "Constellation 1 1018",
        "Satellite Number": 1018,
        "Semi-Major Axis(m)": 7083131.272910544,
        "Time(s)": 143
    },
    {
        "Altitude(m)": 706764.3950892938,
        "Argument of Periapsis(deg)": 0.008632512899338408,
        "Eccentricity": 0.0,
        "Inclination(deg)": 45.0,
        "Latitude(deg)": 42.716047694342834,
        "Longitude(deg)": -117.26278381698191,
        "Mean Anomaly(deg)": 106.92276419598548,
        "RAAN(deg)": 229.991851160158,
        "Satellite Name": "Constellation 1 1018",
        "Satellite Number": 1018,
        "Semi-Major Axis(m)": 7083131.272910544,
        "Time(s)": 144
    },
    {
        "Altitude(m)": 706760.6202043156,
        "Argument of Periapsis(deg)": 0.008692460905583814,
        "Eccentricity": 0.0,
        "Inclination(deg)": 45.0,
        "Latitude(deg)": 42.69898906348889,
        "Longitude(deg)": -117.18775772166669,
        "Mean Anomaly(deg)": 106.98346533623537,
        "RAAN(deg)": 229.99179457099245,
        "Satellite Name": "Constellation 1 1018",
        "Satellite Number": 1018,
        "Semi-Major Axis(m)": 7083131.272910544,
        "Time(s)": 145
    },
    {
        "Altitude(m)": 706756.8339229148,
        "Argument of Periapsis(deg)": 0.00875240891182922,
        "Eccentricity": 0.0,
        "Inclination(deg)": 45.0,
        "Latitude(deg)": 42.68187576069922,
        "Longitude(deg)": -117.11277497638895,
        "Mean Anomaly(deg)": 107.0441664764853,
        "RAAN(deg)": 229.99173798182684,
        "Satellite Name": "Constellation 1 1018",
        "Satellite Number": 1018,
        "Semi-Major Axis(m)": 7083131.272910544,
        "Time(s)": 146
    },
    {
        "Altitude(m)": 706753.0362676156,
        "Argument of Periapsis(deg)": 0.008812356918074627,
        "Eccentricity": 0.0,
        "Inclination(deg)": 45.0,
        "Latitude(deg)": 42.664707848058875,
        "Longitude(deg)": -117.03783566979443,
        "Mean Anomaly(deg)": 107.10486761673519,
        "RAAN(deg)": 229.99168139266126,
        "Satellite Name": "Constellation 1 1018",
        "Satellite Number": 1018,
        "Semi-Major Axis(m)": 7083131.272910544,
        "Time(s)": 147
    },
    {
        "Altitude(m)": 706749.2272610061,
        "Argument of Periapsis(deg)": 0.008872304924320031,
        "Eccentricity": 0.0,
        "Inclination(deg)": 45.0,
        "Latitude(deg)": 42.647485387763524,
        "Longitude(deg)": -116.96294005806057,
        "Mean Anomaly(deg)": 107.16556875698502,
        "RAAN(deg)": 229.9916248034957,
        "Satellite Name": "Constellation 1 1018",
        "Satellite Number": 1018,
        "Semi-Major Axis(m)": 7083131.272910544,
        "Time(s)": 148
    },
    {
        "Altitude(m)": 706745.4069257597,
        "Argument of Periapsis(deg)": 0.008932252930565437,
        "Eccentricity": 0.0,
        "Inclination(deg)": 45.0,
        "Latitude(deg)": 42.630208442117755,
        "Longitude(deg)": -116.88808789250969,
        "Mean Anomaly(deg)": 107.22626989723496,
        "RAAN(deg)": 229.99156821433016,
        "Satellite Name": "Constellation 1 1018",
        "Satellite Number": 1018,
        "Semi-Major Axis(m)": 7083131.272910544,
        "Time(s)": 149
    },
    {
        "Altitude(m)": 706741.5752846067,
        "Argument of Periapsis(deg)": 0.008992200936810843,
        "Eccentricity": 0.0,
        "Inclination(deg)": 45.0,
        "Latitude(deg)": 42.61287707353541,
        "Longitude(deg)": -116.8132794281902,
        "Mean Anomaly(deg)": 107.28697103748486,
        "RAAN(deg)": 229.99151162516455,
        "Satellite Name": "Constellation 1 1018",
        "Satellite Number": 1018,
        "Semi-Major Axis(m)": 7083131.272910544,
        "Time(s)": 150
    },
    {
        "Altitude(m)": 706737.7323603599,
        "Argument of Periapsis(deg)": 0.009052148943056249,
        "Eccentricity": 0.0,
        "Inclination(deg)": 45.0,
        "Latitude(deg)": 42.59549134453785,
        "Longitude(deg)": -116.73851475148884,
        "Mean Anomaly(deg)": 107.34767217773472,
        "RAAN(deg)": 229.991455035999,
        "Satellite Name": "Constellation 1 1018",
        "Satellite Number": 1018,
        "Semi-Major Axis(m)": 7083131.272910544,
        "Time(s)": 151
    }
]